Satellite: AO-51
Catalog number: 28375
Epoch time:      11188.45922011
Element set:      14
Inclination:      098.0991 deg
RA of node:       165.8390 deg
Eccentricity:    0.0084815
Arg of perigee:   009.1752 deg
Mean anomaly:     351.0964 deg
Mean motion:   14.40766001 rev/day
Decay rate:        5.9e-07 rev/day^2
Epoch rev:           36898
Checksum:              313

Satellite: CP3
Catalog number: 31129
Epoch time:      11187.78246519
Element set:     910
Inclination:      097.8973 deg
RA of node:       210.8624 deg
Eccentricity:    0.0104853
Arg of perigee:   120.1196 deg
Mean anomaly:     241.0408 deg
Mean motion:   14.52510033 rev/day
Decay rate:       3.21e-06 rev/day^2
Epoch rev:           22368
Checksum:              275

Satellite: CO-65
Catalog number: 32785
Epoch time:      11187.72548890
Element set:    0037
Inclination:      097.8485 deg
RA of node:       251.2455 deg
Eccentricity:    0.0016117
Arg of perigee:   110.4207 deg
Mean anomaly:     249.8737 deg
Mean motion:   14.82037659 rev/day
Decay rate:        7.7e-07 rev/day^2
Epoch rev:           17243
Checksum:              330

Satellite: PRISM
Catalog number: 33493
Epoch time:      11188.48623977
Element set:     747
Inclination:      098.1274 deg
RA of node:       317.3953 deg
Eccentricity:    0.0019137
Arg of perigee:   339.5177 deg
Mean anomaly:     020.5268 deg
Mean motion:   14.81767078 rev/day
Decay rate:       6.48e-06 rev/day^2
Epoch rev:           13252
Checksum:              335

Satellite: SOHLA-1
Catalog number: 33496
Epoch time:      11187.86301196
Element set:     456
Inclination:      098.0825 deg
RA of node:       297.4977 deg
Eccentricity:    0.0007653
Arg of perigee:   064.8336 deg
Mean anomaly:     295.3662 deg
Mean motion:   14.69631212 rev/day
Decay rate:       1.26e-06 rev/day^2
Epoch rev:           13137
Checksum:              323

Satellite: TISAT-1
Catalog number: 36799
Epoch time:      11188.54636354
Element set:      21
Inclination:      098.1009 deg
RA of node:       256.9998 deg
Eccentricity:    0.0014603
Arg of perigee:   206.9755 deg
Mean anomaly:     153.0704 deg
Mean motion:   14.80606212 rev/day
Decay rate:       5.35e-06 rev/day^2
Epoch rev:            5332
Checksum:              302

Satellite: STUDSAT
Catalog number: 36801
Epoch time:      11188.75571284
Element set:     208
Inclination:      098.1047 deg
RA of node:       257.0895 deg
Eccentricity:    0.0012935
Arg of perigee:   195.2510 deg
Mean anomaly:     164.8314 deg
Mean motion:   14.80739063 rev/day
Decay rate:      1.397e-05 rev/day^2
Epoch rev:            5334
Checksum:              305

Satellite: RAX
Catalog number: 37223
Epoch time:      11152.36844328
Element set:    0173
Inclination:      071.9713 deg
RA of node:       073.6151 deg
Eccentricity:    0.0021634
Arg of perigee:   311.5989 deg
Mean anomaly:     048.3343 deg
Mean motion:   14.77415682 rev/day
Decay rate:       6.35e-06 rev/day^2
Epoch rev:           02854
Checksum:              291

Satellite: OOREOS
Catalog number: 37224
Epoch time:      11153.29456974
Element set:    0179
Inclination:      071.9726 deg
RA of node:       071.8135 deg
Eccentricity:    0.0020315
Arg of perigee:   307.7637 deg
Mean anomaly:     052.1684 deg
Mean motion:   14.77036357 rev/day
Decay rate:       4.92e-06 rev/day^2
Epoch rev:           02867
Checksum:              309

Satellite: FO-69
Catalog number: 37227
Epoch time:      11188.44951600
Element set:    0074
Inclination:      071.9698 deg
RA of node:       354.5874 deg
Eccentricity:    0.0018546
Arg of perigee:   245.7889 deg
Mean anomaly:     114.1347 deg
Mean motion:   14.76607631 rev/day
Decay rate:       1.85e-06 rev/day^2
Epoch rev:           01231
Checksum:              331

Satellite: NANOSALD
Catalog number: 37361
Epoch time:      11187.49898783
Element set:    0269
Inclination:      071.9652 deg
RA of node:       349.5955 deg
Eccentricity:    0.0046495
Arg of perigee:   101.0096 deg
Mean anomaly:     259.6363 deg
Mean motion:   15.04282256 rev/day
Decay rate:     6.1469e-04 rev/day^2
Epoch rev:           02502
Checksum:              337

Satellite: FO-70
Catalog number: 37380
Epoch time:      11188.46639112
Element set:    0209
Inclination:      071.9736 deg
RA of node:       354.6825 deg
Eccentricity:    0.0019081
Arg of perigee:   242.6397 deg
Mean anomaly:     117.2826 deg
Mean motion:   14.76372941 rev/day
Decay rate:        9.5e-07 rev/day^2
Epoch rev:           03385
Checksum:              323

/EX
SB KEPS @ AMSAT  $ORB11188.W
Orbital Elements  11188.WEATHER

HR AMSAT ORBITAL ELEMENTS FOR WEATHER SATELLITES
FROM WA5QGD FORT WORTH,TX July 7, 2011
Send Subscribe/unsubscribe to KEPS at http://www.amsat.org/mailman/listinfo/keps
BID: ORB11188.W
TO ALL RADIO AMATEURS BT

Satellite: NOAA-10
Catalog number: 16969
Epoch time:      11187.69600222
Element set:    0557
Inclination:      098.6187 deg
RA of node:       217.2165 deg
Eccentricity:    0.0012367
Arg of perigee:   164.3799 deg
Mean anomaly:     195.7764 deg
Mean motion:   14.27467755 rev/day
Decay rate:        6.1e-07 rev/day^2
Epoch rev:           29043
Checksum:              338

Satellite: NOAA-11
Catalog number: 19531
Epoch time:      11187.64714265
Element set:    0558
Inclination:      098.7523 deg
RA of node:       274.7430 deg
Eccentricity:    0.0011878
Arg of perigee:   130.6749 deg
Mean anomaly:     229.5469 deg
Mean motion:   14.14920738 rev/day
Decay rate:       3.11e-06 rev/day^2
Epoch rev:           17550
Checksum:              317

Satellite: NOAA-12
Catalog number: 21263
Epoch time:      11187.94748304
Element set:    0065
Inclination:      098.7494 deg
RA of node:       205.7573 deg
Eccentricity:    0.0013187
Arg of perigee:   126.5718 deg
Mean anomaly:     233.6677 deg
Mean motion:   14.25723294 rev/day
Decay rate:        7.9e-07 rev/day^2
Epoch rev:           04722
Checksum:              320

Satellite: MET-3/5
Catalog number: 21655
Epoch time:      11187.88575310
Element set:    0153
Inclination:      082.5552 deg
RA of node:       036.8559 deg
Eccentricity:    0.0014664
Arg of perigee:   106.2951 deg
Mean anomaly:     253.9752 deg
Mean motion:   13.17027545 rev/day
Decay rate:        5.1e-07 rev/day^2
Epoch rev:           95631
Checksum:              308

Satellite: MET-2/21
Catalog number: 22782
Epoch time:      11188.43173589
Element set:     141
Inclination:      082.5502 deg
RA of node:       306.8157 deg
Eccentricity:    0.0023610
Arg of perigee:   045.0542 deg
Mean anomaly:     315.2534 deg
Mean motion:   13.83660161 rev/day
Decay rate:        1.0e-08 rev/day^2
Epoch rev:           90135
Checksum:              264

