AO-51
1 28375U 04025K   11188.45922011  .00000059  00000-0  30529-4 0   144
2 28375 098.0991 165.8390 0084815 009.1752 351.0964 14.40766001368986
CP3
1 31129U 07012N   11187.78246519  .00000321  00000-0  83299-4 0  9100
2 31129 097.8973 210.8624 0104853 120.1196 241.0408 14.52510033223689
CO-65
1 32785U 08021C   11187.72548890  .00000077  00000-0  16311-4 0 00370
2 32785 097.8485 251.2455 0016117 110.4207 249.8737 14.82037659172435
PRISM
1 33493U 09002B   11188.48623977  .00000648  00000-0  89028-4 0  7478
2 33493 098.1274 317.3953 0019137 339.5177 020.5268 14.81767078132527
SOHLA-1
1 33496U 09002E   11187.86301196  .00000126  00000-0  29423-4 0  4569
2 33496 098.0825 297.4977 0007653 064.8336 295.3662 14.69631212131378
TISAT-1
1 36799U 10035E   11188.54636354  .00000535  00000-0  76786-4 0   215
2 36799 098.1009 256.9998 0014603 206.9755 153.0704 14.80606212 53322
STUDSAT
1 36801U 10035G   11188.75571284  .00001397  00000-0  18829-3 0  2089
2 36801 098.1047 257.0895 0012935 195.2510 164.8314 14.80739063 53341
RAX
1 37223U 0        11152.36844328  .00000635  00000-0  96781-4 0 01738
2 37223 071.9713 073.6151 0021634 311.5989 048.3343 14.77415682028541
OOREOS
1 37224U 10062C   11153.29456974  .00000492  00000-0  77478-4 0 01796
2 37224 071.9726 071.8135 0020315 307.7637 052.1684 14.77036357028673
FO-69
1 37227U 0        11188.44951600  .00000185  00000-0  34488-4 0 00748
2 37227 071.9698 354.5874 0018546 245.7889 114.1347 14.76607631012315
NANOSALD
1 37361U 0        11187.49898783  .00061469  00000-0  42757-2 0 02697
2 37361 071.9652 349.5955 0046495 101.0096 259.6363 15.04282256025025
FO-70
1 37380U 0        11188.46639112  .00000095  00000-0  21697-4 0 02099
2 37380 071.9736 354.6825 0019081 242.6397 117.2826 14.76372941033851
NOAA-10
1 16969U 86073A   11187.69600222  .00000061  00000-0  42652-4 0 05570
2 16969 098.6187 217.2165 0012367 164.3799 195.7764 14.27467755290439
NOAA-11
1 19531U 88089A   11187.64714265  .00000311  00000-0  18335-3 0 05584
2 19531 098.7523 274.7430 0011878 130.6749 229.5469 14.14920738175501
NOAA-12
1 21263U 91032A   11187.94748304  .00000079  00000-0  52103-4 0 00651
2 21263 098.7494 205.7573 0013187 126.5718 233.6677 14.25723294047224
MET-3/5
1 21655U 91056A   11187.88575310  .00000051  00000-0  10000-3 0 01537
2 21655 082.5552 036.8559 0014664 106.2951 253.9752 13.17027545956311
MET-2/21
1 22782U 93055A   11188.43173589  .00000001  00000-0 -12377-4 0  1417
2 22782 082.5502 306.8157 0023610 045.0542 315.2534 13.83660161901353
